GOES-16
1 41866U 16071A   25192.89722988 -.00000080  00000-0  00000-0 0  9991
2 41866   0.0440 222.4642 0001223 287.9104 357.9518  1.00271748 31693
FENGYUN-4A
1 41882U 16077A   25192.89749543 -.00000348  00000-0  00000-0 0  9998
2 41882   1.4525  84.0569 0006458 169.5301 123.1924  1.00275832 31512
FOX-1B (AO-91)
1 43017U 17073E   25192.90725312  .00006748  00000-0  34133-3 0  9993
2 43017  97.5213  62.8606 0172883  56.8322 304.9354 15.05184674414072
CANX-2
1 32790U 08021H   25192.88372492  .00001956  00000-0  15432-3 0  9993
2 32790  97.8167 162.8872 0012629 103.4196 256.8436 15.01883373933669
AIST-2 (RS-43)
1 39133U 13015D   25193.21988776  .00003733  00000-0  17409-3 0  9997
2 39133  64.8716 284.6701 0032155 275.5348  84.2113 15.21079999672546
NANOSATC-BR1
1 40024U 14033Q   25192.75882236  .00007837  00000-0  37843-3 0  9994
2 40024  98.0900 192.9336 0002815 287.6658  72.4267 15.18967099602099
QB50P1
1 40025U 14033R   25192.86540942  .00004409  00000-0  26897-3 0  9991
2 40025  98.0838 177.2640 0008761 312.6056  47.4433 15.10884784601515
QB50P2
1 40032U 14033Y   25192.88016507  .00004595  00000-0  29751-3 0  9994
2 40032  98.0444 165.8815 0007028 247.2288 112.8197 15.08675868601240
PERSEUS-M2
1 40037U 14033AD  25193.19205164  .00001357  00000-0  13334-3 0  9996
2 40037  97.9561 133.1528 0012049 353.9029   6.2042 14.93828307600491
PERSEUS-M1
1 40039U 14033AF  25193.04456695  .00001321  00000-0  12997-3 0  9994
2 40039  97.9296 127.8494 0011825 353.2483   6.8575 14.93818902600338
POLYITAN-1
1 40042U 14033AJ  25192.71269096  .00008269  00000-0  39518-3 0  9994
2 40042  98.1028 185.3353 0007976 243.4875 116.5540 15.19285281601663
TIGRISAT
1 40043U 14033AK  25193.19061072  .00001598  00000-0  19797-3 0  9997
2 40043  97.7389 347.4294 0052712 108.8717 251.8223 14.83080351595496
UKUBE-1
1 40074U 14037F   25192.86425063  .00005164  00000-0  36068-3 0  9995
2 40074  98.3941 158.0037 0001098 168.0344 192.0907 15.05847842597204
DEORBITSAIL
1 40719U 15032E   25192.88182489  .00004393  00000-0  38474-3 0  9997
2 40719  97.6386  51.7367 0009352 281.4159  78.6012 14.97166501540216
HORYU-IV
1 41340U 16012D   25192.54744071  .00014705  00000-0  37726-3 0  9998
2 41340  30.9967 276.7715 0006451  39.0164 321.0946 15.38019562517718
D-SAT
1 42794U 17036AF  25192.90196699  .00003134  00000-0  17616-3 0  9996
2 42794  97.5156 170.2132 0091015 256.4836 102.6241 15.10551056439378
CORVUS-BC2
1 42846U 17042X   25192.93175253  .00001889  00000-0  14397-3 0  9995
2 42846  97.3766   3.9702 0013865 184.1926 175.9186 15.03112718435894
CORVUS-BC1
1 42847U 17042Y   25192.91090254  .00001697  00000-0  12903-3 0  9999
2 42847  97.3767   4.5097 0012882 165.3135 194.8468 15.03345821435910
APRIZESAT-5 
1 37792U 11044E   25192.73211796  .00000722  00000-0  10074-3 0  9999
2 37792  98.2299 111.8132 0053802  19.9872 340.3430 14.80018305748411
APRIZESAT-6
1 37793U 11044F   25192.95032697  .00000492  00000-0  78071-4 0  9991
2 37793  98.2573  91.3449 0045099  93.6937 277.2900 14.76120098746944
APRIZESAT-7
1 39416U 13066A   25192.41759619  .00000823  00000-0  89825-4 0  9999
2 39416  97.7225 146.8882 0035247 260.4102  99.3132 14.90201818630482
APRIZESAT-8
1 39425U 13066K   25192.40945544  .00000709  00000-0  84843-4 0  9990
2 39425  97.7773 140.8529 0046162 328.7143  31.1327 14.86528982629299
BUGSAT-1 (TITA)
1 40014U 14033E   25193.19162826  .00003158  00000-0  19109-3 0  9995
2 40014  98.0731 261.5702 0029490 257.4968 102.2961 15.11096992604427
SAUDISAT-4
1 40016U 14033G   25192.38574990  .00000468  00000-0  69389-4 0  9993
2 40016  97.7108 346.4841 0046914 102.2924 258.3546 14.78782752595697
TABLETSAT-AURORA
1 40017U 14033H   25193.15499822  .00004590  00000-0  27288-3 0  9991
2 40017  98.0707 242.7176 0011610 297.3084  62.6962 15.11775596603744
APRIZESAT-9
1 40018U 14033J   25192.94897236  .00000475  00000-0  78409-4 0  9999
2 40018  97.8583 330.6321 0066243 213.2575 146.4463 14.73508713593575
APRIZESAT-10
1 40019U 14033K   25193.12797610  .00000302  00000-0  56163-4 0  9998
2 40019  97.9214 323.7467 0078271 279.9644  79.2736 14.70259634592456
AISAT
1 40054U 14034B   25193.18488362  .00004456  00000-0  36026-3 0  9994
2 40054  98.2836  77.6752 0010792 261.3337  98.6662 15.00321732596088
COSMOS-2407 [+]
1 28380U 04028A   25192.85628139  .00000048  00000-0  33270-4 0  9997
2 28380  82.9625 326.8588 0040432 123.2958  41.0578 13.76293779 53061
COSMOS-2414 [+]
1 28521U 05002A   25192.75668965  .00000065  00000-0  41268-4 0  9992
2 28521  82.9512 301.1179 0039304 218.5359 141.2998 13.87879318 36593
COSMOS-2463 [+]
1 36519U 10017A   25192.97237811  .00000039  00000-0  27078-4 0  9990
2 36519  82.9617 139.6983 0036171 356.5633  74.0934 13.71632947761292
NOAA-15
1 25338U 98030A   25193.20580376  .00000190  00000-0  95933-4 0  9995
2 25338  98.5338 217.5497 0009006 262.8277  97.1880 14.26995403413052
NOAA-18
1 28654U 05018A   25193.18094793  .00000060  00000-0  55249-4 0  9995
2 28654  98.8421 272.2904 0014841  40.8698 319.3585 14.13618223 38352
NOAA-19
1 33591U 09005A   25193.19266841  .00000162  00000-0  11043-3 0  9993
2 33591  98.9960 258.0782 0012665 271.4836  88.4885 14.13388187846718
SARAL
1 39086U 13009A   25192.94575183  .00000053  00000-0  35600-4 0  9996
2 39086  98.5536  18.8619 0001592 174.0123 186.1080 14.32690350646881
LAPAN-A3
1 41603U 16040E   25193.20253804  .00002345  00000-0  82977-4 0  9990
2 41603  97.1369 196.5336 0012037 145.0946 215.1087 15.30038644502775
BIROS
1 41604U 16040F   25192.35740784  .00020944  00000-0  22448-3 0  9995
2 41604  97.0843 221.3397 0006409  71.2664 288.9291 15.63826342504468
METOP-A
1 29499U 06044A   25193.21452287  .00001462  00000-0  17831-3 0  9994
2 29499  98.3317 284.8901 0180044  72.2699 347.6910 14.74154327978181
METEOR M1
1 35865U 09049A   25193.13166841  .00000039  00000-0  36549-4 0  9992
2 35865  98.6871 154.0489 0001801 183.0432 177.0736 14.23030235821027
METOP-B
1 38771U 12049A   25193.12839139  .00000075  00000-0  53910-4 0  9992
2 38771  98.5753 246.4262 0000570 135.0410 225.0814 14.21463389664949
METEOR M2
1 40069U 14037A   25193.21463798  .00000066  00000-0  49435-4 0  9995
2 40069  98.4694 176.8372 0004829 313.9975  46.0804 14.21307806571024
CSSWE
1 38761U 12048D   25192.96114234  .00010457  00000-0  35073-3 0  9997
2 38761  64.6631 148.8065 0112570 266.4844  92.3404 15.25403692 64194
MCUBED-2
1 39469U 13072H   25192.87438854  .00012180  00000-0  58591-3 0  9993
2 39469 120.4932 128.6385 0174938  10.9559 349.5252 15.06906533 66334
IPEX
1 39471U 13072K   25192.98390025  .00006762  00000-0  39085-3 0  9991
2 39471 120.4691  93.2305 0188422   1.3914 358.7648 15.00006756 64049
FOX-1A (AO-85)
1 40967U 15058D   25192.78938314  .00002071  00000-0  19387-3 0  9998
2 40967  64.7750 254.7484 0156429 184.9828 174.9736 14.88251233 62864
OOREOS
1 37224U 10062C   25192.95932025  .00001571  00000-0  16239-3 0  9999
2 37224  71.9703 129.7808 0015055 346.8281  13.2493 14.91586297 65870
STARS (KUKAI)
1 33498U 09002G   25192.77932485  .00001624  00000-0  16602-3 0  9993
2 33498  98.1242 122.9248 0008167 203.9383 156.1456 14.92030706887657
YUBELEINY-2 (RS-40)
1 38735U 12041C   25192.94690430  .00000029  00000-0  14052-3 0  9994
2 38735  82.4768 286.8373 0018556  91.2167 269.1039 12.42633065587586
AIST-1
1 39492U 13078C   25193.23375861  .00000970  00000-0  87118-4 0  9996
2 39492  82.4148 239.8255 0016576 341.3387  18.7224 14.94587990626772
VELOX-1
1 40057U 14034E   25193.21086362  .00003326  00000-0  32290-3 0  9999
2 40057  98.2891  74.4941 0007034 319.3508  40.7184 14.93370348595787
DX1
1 40071U 14037C   25193.16838840  .00001179  00000-0  13429-3 0  9995
2 40071  98.3446 130.6713 0006276 305.3497  54.7131 14.88254497595586
COSMOS-2491 (RS-46) [i]
1 39497U 13076E   25193.16344366  .00000015  00000-0  37941-4 0  9996
2 39497  82.4854  20.3203 0013843 111.4079 248.8479 12.43489871523758
COSMOS-2499 (RS-47) [i]
1 39765U 14028E   25193.17321551  .00000047  00000-0  12835-3 0  9993
2 39765  82.4503 121.8857 0232814  79.8804 282.8472 12.82893212521641
TRANSIT 5B-5
1 00965U 64083D   25192.82251045  .00000049  00000-0  55545-4 0  9998
2 00965  90.0581 200.5269 0041005 190.4631 343.9299 13.56970177997441
EUTELSAT 1-F4 (ECS 4)
1 18351U 87078B   25192.91881617 -.00000024  00000-0  00000-0 0  9995
2 18351  14.0708 344.5074 0008928  46.9502 320.5843  0.98687130123407
BISONSAT
1 40968U 15058E   25192.85574334  .00002459  00000-0  21097-3 0  9996
2 40968  64.7744 241.7550 0145938 183.9515 176.0459 14.92133884 65812
DTUSAT-2
1 40030U 14033W   25192.86163103  .00004284  00000-0  27826-3 0  9991
2 40030  98.0568 166.2520 0007793 319.8186  40.2464 15.08601531601264
ELEKTRO-L2
1 41105U 15074A   25192.91516994 -.00000110  00000-0  00000-0 0  9994
2 41105   5.8322  74.7372 0000987 177.3721 352.9528  1.00271486 35095
DOVE-3
1 39429U 13066P   25193.22041708  .00002493  00000-0  34829-3 0  9994
2 39429  97.7076  65.1608 0120395  46.0081 315.0977 14.73580888621104
FORTE
1 24920U 97047A   25192.91104612  .00000111  00000-0  68340-4 0  9995
2 24920  69.9533  62.4797 0021323  15.5933 344.5841 14.27726558450113
DMSP 5D-2 F15/USA-147
1 25991U 99067A   25193.21049868  .00000076  00000-0  60336-4 0  9990
2 25991  99.0373 221.7629 0008852 247.2699 197.1193 14.17390201322501
CASSIOPE-1
1 39265U 13055A   25193.20825410  .00025263 -82628-6  38602-3 0  9994
2 39265  80.9422 111.2507 0387717 107.2179 257.1859 14.99131710616263
D-STAR ONE PHOENIX
1 43188U 18014J   25192.66335046  .00003003  00000-0  17813-3 0  9999
2 43188  97.5612  95.3710 0011332 107.9617 252.2850 15.12069702407224
S-NET D
1 43186U 18014G   25193.19248132  .00003291  00000-0  19490-3 0  9997
2 43186  97.5597  95.7673 0010735 109.4788 250.7603 15.12069361407307
TEN-KOH
1 43677U 18084G   25192.86877340  .00001326  00000-0  10981-3 0  9994
2 43677  98.0847   6.4021 0008362 146.4138 213.7616 15.00688993365081
